[Satellite]
VERSION=1.1
NAME=ALTAIR PATHFINDER
NICKNAME=ALTAIR PATHFINDER
TLE1=1 42711U 98067LS  17186.20376717  .00006072  00000-0  94642-4 0  9995
TLE2=2 42711  51.6405 308.1797 0004665 332.2979  27.7763 15.55354340  7317
